ORBCOMM-X [-]           
1 21576U 91050C   23254.44117697  .00000419  00000+0  14043-3 0  9999
2 21576  98.4282 320.7093 0003222 351.6758   8.4377 14.42164101689156
ORBCOMM FM01 [-]        
1 23545U 95017A   23254.42329263  .00005525  00000+0  80499-3 0  9997
2 23545  69.9676 222.6315 0007352 237.3216 122.7223 14.76343394516955
ORBCOMM FM02 [-]        
1 23546U 95017B   23254.51734211  .00006248  00000+0  92070-3 0  9992
2 23546  69.9688 241.3731 0008661 227.6249 132.4166 14.75771089516624
ORBCOMM FM08 [-]        
1 25112U 97084A   23254.57882401  .00002130  00000+0  69760-3 0  9996
2 25112  45.0147 210.0170 0008108 249.4507 110.5473 14.41194746348246
ORBCOMM FM10 [-]        
1 25113U 97084B   23254.57415440  .00002196  00000+0  71880-3 0  9990
2 25113  45.0159 211.7405 0004928 228.9659 131.0766 14.41141919523393
ORBCOMM FM11 [+]        
1 25114U 97084C   23254.57364118  .00002059  00000+0  67819-3 0  9991
2 25114  45.0144 211.6285 0005660 226.5050 133.5330 14.41028967348369
ORBCOMM FM12 [-]        
1 25115U 97084D   23254.25233712  .00001748  00000+0  58250-3 0  9995
2 25115  45.0152 212.7968 0004781 230.2749 129.7679 14.41022436348110
ORBCOMM FM09 [-]        
1 25116U 97084E   23254.67471764  .00001949  00000+0  64446-3 0  9990
2 25116  45.0155 211.4114 0005292 210.6550 149.3991 14.41004911348419
